NORAD_CAT_ID,OBJECT_NAME,OBJECT_TYPE,EPOCH,MEAN_MOTION,ECCENTRICITY,INCLINATION,RA_OF_ASC_NODE,ARG_OF_PERICENTER,MEAN_ANOMALY,BSTAR,MEAN_MOTION_DOT,MEAN_MOTION_DDOT,TLE_LINE0,TLE_LINE1,TLE_LINE2,SEMIMAJOR_AXIS,PERIOD,APOGEE,PERIGEE,DECAYED
49152.0,STARLINK-3081,PAYLOAD,2023-09-20 10:11:33,14.98322509,0.0002906,70.0018,6.8562,265.8155,94.2672,1.3271e-05,6.5e-07,0.0,0 STARLINK-3081,1 49152U 21082Y   23263.42469662  .00000065  00000-0  13271-4 0  9998,2 49152  70.0018   6.8562 0002906 265.8155  94.2672 14.98322509113092,6950.216,96.107,574.101,570.061,0.0
49152.0,STARLINK-3081,PAYLOAD,2023-09-20 13:23:49,14.98336835,0.0002975,70.0004,6.5175,269.9217,90.1601,-0.00024643,-3.033e-05,0.0,0 STARLINK-3081,1 49152U 21082Y   23263.55821286 -.00003033  00000-0 -24643-3 0  9990,2 49152  70.0004   6.5175 0002975 269.9217  90.1601 14.98336835113100,6950.172,96.107,574.104,569.969,0.0
49152.0,STARLINK-3081,PAYLOAD,2023-09-20 16:36:05,14.98325836,0.0002923,70.0012,6.1817,270.0476,90.0348,5.2862e-05,5.38e-06,0.0,0 STARLINK-3081,1 49152U 21082Y   23263.69173490  .00000538  00000-0  52862-4 0  9992,2 49152  70.0012   6.1817 0002923 270.0476  90.0348 14.98325836113129,6950.206,96.107,574.102,570.039,0.0
49152.0,STARLINK-3081,PAYLOAD,2023-09-21 10:13:34,14.98326673,0.0003162,70.0013,4.3296,272.3551,87.7246,0.0001747,1.992e-05,0.0,0 STARLINK-3081,1 49152U 21082Y   23264.42609285  .00001992  00000-0  17470-3 0  9990,2 49152  70.0013   4.3296 0003162 272.3551  87.7246 14.98326673113249,6950.203,96.107,574.266,569.871,0.0
49152.0,STARLINK-3081,PAYLOAD,2023-09-21 13:25:50,14.98331628,0.0002695,70.0014,3.9931,270.1497,89.9354,0.00012143,1.356e-05,0.0,0 STARLINK-3081,1 49152U 21082Y   23264.55961152  .00001356  00000-0  12143-3 0  9994,2 49152  70.0014   3.9931 0002695 270.1497  89.9354 14.98331628113257,6950.188,96.107,573.926,570.18,0.0
49152.0,STARLINK-3081,PAYLOAD,2023-09-21 15:01:57,14.98338949,0.0002959,70.0012,3.8256,270.9371,89.1449,0.00015592,1.768e-05,0.0,0 STARLINK-3081,1 49152U 21082Y   23264.62636552  .00001768  00000-0  15592-3 0  9993,2 49152  70.0012   3.8256 0002959 270.9371  89.1449 14.98338949113278,6950.165,96.106,574.087,569.974,0.0
49152.0,STARLINK-3081,PAYLOAD,2023-09-21 16:38:05,14.98339127,0.0003045,70.0013,3.6579,272.7417,87.3394,0.00021773,2.506e-05,0.0,0 STARLINK-3081,1 49152U 21082Y   23264.69312472  .00002506  00000-0  21773-3 0  9991,2 49152  70.0013   3.6579 0003045 272.7417  87.3394 14.98339127113271,6950.165,96.106,574.146,569.913,0.0
49152.0,STARLINK-3081,PAYLOAD,2023-09-22 08:39:27,14.98323934,0.000287,70.0027,1.9743,274.4555,85.6277,0.00023588,2.722e-05,0.0,0 STARLINK-3081,1 49152U 21082Y   23265.36073376  .00002722  00000-0  23588-3 0  9999,2 49152  70.0027   1.9743 0002870 274.4555  85.6277 14.98323934113389,6950.212,96.107,574.071,570.082,0.0
49152.0,STARLINK-3081,PAYLOAD,2023-09-22 13:27:51,14.98330975,0.0003093,70.0011,1.4682,274.3669,85.7136,0.00018328,2.095e-05,0.0,0 STARLINK-3081,1 49152U 21082Y   23265.56101047  .00002095  00000-0  18328-3 0  9997,2 49152  70.0011   1.4682 0003093 274.3669  85.7136 14.98330975113403,6950.19,96.107,574.205,569.905,0.0
49152.0,STARLINK-3081,PAYLOAD,2023-09-22 16:40:06,14.98337258,0.0003009,70.0012,1.1314,274.1152,85.9663,0.00026698,3.095e-05,0.0,0 STARLINK-3081,1 49152U 21082Y   23265.69452489  .00003095  00000-0  26698-3 0  9990,2 49152  70.0012   1.1314 0003009 274.1152  85.9663 14.98337258113436,6950.17,96.107,574.127,569.944,0.0
49152.0,STARLINK-3081,PAYLOAD,2023-09-23 11:53:43,14.98334795,0.0002583,70.0021,359.1126,264.8791,95.2073,6.6429e-05,7e-06,0.0,0 STARLINK-3081,1 49152U 21082Y   23266.49564759  .00000700  00000-0  66429-4 0  9990,2 49152  70.0021 359.1126 0002583 264.8791  95.2073 14.98334795113559,6950.178,96.107,573.838,570.248,0.0
49152.0,STARLINK-3081,PAYLOAD,2023-09-23 13:29:52,14.98335743,0.0002558,70.0022,358.9445,263.6407,96.4461,4.357e-05,4.27e-06,0.0,0 STARLINK-3081,1 49152U 21082Y   23266.56240762  .00000427  00000-0  43570-4 0  9991,2 49152  70.0022 358.9445 0002558 263.6407  96.4461 14.98335743113552,6950.175,96.107,573.818,570.262,0.0
49152.0,STARLINK-3081,PAYLOAD,2023-09-24 10:19:37,14.98327561,0.0002762,70.0027,356.7573,270.0292,90.0551,3.224e-05,2.92e-06,0.0,0 STARLINK-3081,1 49152U 21082Y   23267.43029069  .00000292  00000-0  32240-4 0  9995,2 49152  70.0027 356.7573 0002762 270.0292  90.0551 14.98327561113690,6950.2,96.107,573.985,570.146,0.0
49152.0,STARLINK-3081,PAYLOAD,2023-09-24 13:31:53,14.98328421,0.000273,70.0024,356.4207,265.9404,94.1443,3.1833e-05,2.87e-06,0.0,0 STARLINK-3081,1 49152U 21082Y   23267.56381014  .00000287  00000-0  31833-4 0  9991,2 49152  70.0024 356.4207 0002730 265.9404  94.1443 14.98328421113704,6950.198,96.107,573.96,570.165,0.0
49152.0,STARLINK-3081,PAYLOAD,2023-09-24 15:08:00,14.98352307,0.0002726,70.0024,356.2522,266.1473,93.9374,-0.0004088,-4.97e-05,0.0,0 STARLINK-3081,1 49152U 21082Y   23267.63056183 -.00004970  00000-0 -40880-3 0  9991,2 49152  70.0024 356.2522 0002726 266.1473  93.9374 14.98352307113728,6950.124,96.106,573.884,570.094,0.0
49152.0,STARLINK-3081,PAYLOAD,2023-09-25 08:45:29,14.98332521,0.0002705,70.0014,354.3997,262.6014,97.4838,6.2054e-05,6.48e-06,0.0,0 STARLINK-3081,1 49152U 21082Y   23268.36492569  .00000648  00000-0  62054-4 0  9998,2 49152  70.0014 354.3997 0002705 262.6014  97.4838 14.98332521113833,6950.185,96.107,573.93,570.17,0.0
49152.0,STARLINK-3081,PAYLOAD,2023-09-25 13:33:52,14.98350372,0.000283,70.0012,353.894,265.9251,94.1585,0.00024336,2.813e-05,0.0,0 STARLINK-3081,1 49152U 21082Y   23268.56518950  .00002813  00000-0  24336-3 0  9999,2 49152  70.0012 353.8940 0002830 265.9251  94.1585 14.98350372113850,6950.13,96.106,573.962,570.028,0.0
49152.0,STARLINK-3081,PAYLOAD,2023-09-25 15:10:00,14.98353281,0.0002887,70.001,353.7258,266.0958,93.9871,0.00027068,3.14e-05,0.0,0 STARLINK-3081,1 49152U 21082Y   23268.63194638  .00003140  00000-0  27068-3 0  9999,2 49152  70.0010 353.7258 0002887 266.0958  93.9871 14.98353281113876,6950.121,96.106,573.992,569.979,0.0
49152.0,STARLINK-3081,PAYLOAD,2023-09-26 10:23:39,14.98320798,0.0002982,70.0005,351.7063,272.9022,87.1796,-2.3907e-05,-3.78e-06,0.0,0 STARLINK-3081,1 49152U 21082Y   23269.43309478 -.00000378  00000-0 -23907-4 0  9999,2 49152  70.0005 351.7063 0002982 272.9022  87.1796 14.98320798113997,6950.221,96.108,574.159,570.014,0.0
49152.0,STARLINK-3081,PAYLOAD,2023-09-26 13:35:55,14.98322837,0.0002906,70.0004,351.3691,271.3912,88.6914,-1.2152e-05,-2.38e-06,0.0,0 STARLINK-3081,1 49152U 21082Y   23269.56661350 -.00000238  00000-0 -12152-4 0  9998,2 49152  70.0004 351.3691 0002906 271.3912  88.6914 14.98322837114003,6950.215,96.107,574.1,570.06,0.0
49152.0,STARLINK-3081,PAYLOAD,2023-09-26 15:12:03,14.98325012,0.0002895,70.0005,351.201,270.8684,89.2143,1.5251e-05,8.9e-07,0.0,0 STARLINK-3081,1 49152U 21082Y   23269.63337174  .00000089  00000-0  15251-4 0  9995,2 49152  70.0005 351.2010 0002895 270.8684  89.2143 14.98325012114015,6950.208,96.107,574.085,570.061,0.0
49152.0,STARLINK-3081,PAYLOAD,2023-09-27 08:49:31,14.9833628,0.000316,69.9995,349.3479,273.7483,86.3315,-1.3796e-05,-2.58e-06,0.0,0 STARLINK-3081,1 49152U 21082Y   23270.36772713 -.00000258  00000-0 -13796-4 0  9991,2 49152  69.9995 349.3479 0003160 273.7483  86.3315 14.98336280114133,6950.173,96.107,574.235,569.842,0.0
49152.0,STARLINK-3081,PAYLOAD,2023-09-27 12:01:47,14.98341919,0.0003133,69.9996,349.012,273.2601,86.82,5.356e-05,5.46e-06,0.0,0 STARLINK-3081,1 49152U 21082Y   23270.50124166  .00000546  00000-0  53560-4 0  9991,2 49152  69.9996 349.0120 0003133 273.2601  86.8200 14.98341919114145,6950.156,96.106,574.199,569.844,0.0
49152.0,STARLINK-3081,PAYLOAD,2023-09-27 15:14:03,14.98345499,0.000298,70.0001,348.6756,273.129,86.9528,0.00010191,1.124e-05,0.0,0 STARLINK-3081,1 49152U 21082Y   23270.63475813  .00001124  00000-0  10191-3 0  9998,2 49152  70.0001 348.6756 0002980 273.1290  86.9528 14.98345499114171,6950.145,96.106,574.081,569.939,0.0
49152.0,STARLINK-3081,PAYLOAD,2023-09-28 12:03:49,14.98324086,0.0003106,69.9996,346.4862,277.5976,82.4831,0.00017699,2.019e-05,0.0,0 STARLINK-3081,1 49152U 21082Y   23271.50265313  .00002019  00000-0  17699-3 0  9991,2 49152  69.9996 346.4862 0003106 277.5976  82.4831 14.98324086114307,6950.211,96.107,574.235,569.917,0.0
49152.0,STARLINK-3081,PAYLOAD,2023-09-28 13:39:57,14.98327211,0.0003177,69.9997,346.3184,276.9884,83.0913,0.00019739,2.263e-05,0.0,0 STARLINK-3081,1 49152U 21082Y   23271.56941096  .00002263  00000-0  19739-3 0  9994,2 49152  69.9997 346.3184 0003177 276.9884  83.0913 14.98327211114304,6950.202,96.107,574.275,569.858,0.0
49152.0,STARLINK-3081,PAYLOAD,2023-09-28 15:16:05,14.98330313,0.0003093,70.0015,346.1513,275.4761,84.6045,0.00020807,2.391e-05,0.0,0 STARLINK-3081,1 49152U 21082Y   23271.63616977  .00002391  00000-0  20807-3 0  9999,2 49152  70.0015 346.1513 0003093 275.4761  84.6045 14.98330313114318,6950.192,96.107,574.207,569.907,0.0
49152.0,STARLINK-3081,PAYLOAD,2023-09-29 13:41:57,14.98339371,0.0003065,70.0016,343.7945,276.4752,83.6058,0.00017293,1.971e-05,0.0,0 STARLINK-3081,1 49152U 21082Y   23272.57080586  .00001971  00000-0  17293-3 0  9992,2 49152  70.0016 343.7945 0003065 276.4752  83.6058 14.98339371114452,6950.164,96.106,574.159,569.899,0.0
49152.0,STARLINK-3081,PAYLOAD,2023-09-29 15:18:05,14.98341463,0.0003073,70.0017,343.6262,276.7849,83.2961,0.00021499,2.474e-05,0.0,0 STARLINK-3081,1 49152U 21082Y   23272.63756478  .00002474  00000-0  21499-3 0  9991,2 49152  70.0017 343.6262 0003073 276.7849  83.2961 14.98341463114479,6950.157,96.106,574.158,569.887,0.0
49152.0,STARLINK-3081,PAYLOAD,2023-09-30 05:43:18,14.98330186,0.0002639,70.0026,342.1114,264.9241,95.1617,0.00020078,2.304e-05,0.0,0 STARLINK-3081,1 49152U 21082Y   23273.23841033  .00002304  00000-0  20078-3 0  9994,2 49152  70.0026 342.1114 0002639 264.9241  95.1617 14.98330186114550,6950.192,96.107,573.891,570.223,0.0
